STARLINK-33539          
1 63376U 25063P   25340.91679138  .00038082  00000+0  12910-2 0  9994
2 63376  53.1581 133.4410 0001141  85.4786 274.6345 15.30207130 40367
STARLINK-33634          
1 63377U 25063Q   25340.69244800  .00041098  00000+0  13921-2 0  9998
2 63377  53.1577 124.2501 0000829  96.8548 263.2547 15.30197871 40522
STARLINK-33640          
1 63378U 25063R   25340.69772213  .00052599  00000+0  17753-2 0  9998
2 63378  53.1581 124.2783 0000999  71.6557 288.4553 15.30203263 40528
STARLINK-33636          
1 63379U 25063S   25340.68928165  .00045866  00000+0  15506-2 0  9990
2 63379  53.1590 124.2290 0000987  92.3297 267.7816 15.30212019 40475
STARLINK-33653          
1 63380U 25063T   25341.10017503  .00037715  00000+0  12805-2 0  9998
2 63380  53.1585 122.5271 0002161  77.3638 282.7604 15.30161818 40538
STARLINK-33643          
1 63381U 25063U   25341.09488690  .00027644  00000+0  94164-3 0  9995
2 63381  53.1572 122.4942 0000846  68.3702 291.7388 15.30212635 40587
STARLINK-33633          
1 63382U 25063V   25341.11370175  .00047145  00000+0  13932-2 0  9998
2 63382  53.1612 119.0673 0000701   9.2429 350.8587 15.34503297 40585
STARLINK-33748          
1 63383U 25063W   25340.84103872  .00048892  00000+0  16510-2 0  9991
2 63383  53.1598 134.4019 0000839  53.1917 306.9160 15.30220902 40399
STARLINK-33658          
1 63384U 25063X   25341.11389352  .00044287  00000+0  14968-2 0  9991
2 63384  53.1601 122.6084 0001155 101.3527 258.7604 15.30237069 40581
STARLINK-33616          
1 63385U 25063Y   25341.16550371  .00051813  00000+0  17474-2 0  9996
2 63385  53.1606 132.8796 0001102  77.1629 282.9495 15.30236123 40391
STARLINK-33571          
1 63386U 25063Z   25340.82415132  .00038975  00000+0  13201-2 0  9992
2 63386  53.1589 134.2785 0001062  85.9625 274.1498 15.30226021 40341
STARLINK-33533          
1 63387U 25063AA  25340.67397626  .00037015  00000+0  12546-2 0  9998
2 63387  53.1594 122.0036 0001132  81.1376 278.9753 15.30226765 40500
STARLINK-33629          
1 63388U 25063AB  25340.68347468  .00032544  00000+0  11056-2 0  9996
2 63388  53.1582 122.0594 0000951  83.8918 276.2191 15.30215126 40557
STARLINK-33656          
1 63389U 25063AC  25341.10439160  .00056398  00000+0  19004-2 0  9990
2 63389  53.1589 122.5472 0002698  70.7108 289.4184 15.30223569 40582
STARLINK-33531          
1 63399U 25065A   25341.18595367  .00057353  00000+0  20750-2 0  9995
2 63399  43.0013 269.4182 0001380 281.2287  78.8410 15.27620037 38694
STARLINK-33652          
1 63400U 25065B   25341.16025272  .00060611  00000+0  21915-2 0  9994
2 63400  43.0002 269.2171 0001338 277.5347  82.5352 15.27618214 38690
