[{"OBJECT_NAME":"STARLINK-33539","OBJECT_ID":"2025-063P","EPOCH":"2025-12-06T22:00:10.775232","MEAN_MOTION":15.3020713,"ECCENTRICITY":0.0001141,"INCLINATION":53.1581,"RA_OF_ASC_NODE":133.441,"ARG_OF_PERICENTER":85.4786,"MEAN_ANOMALY":274.6345,"EPHEMERIS_TYPE":0,"CLASSIFICATION_TYPE":"U","NORAD_CAT_ID":63376,"ELEMENT_SET_NO":999,"REV_AT_EPOCH":4036,"BSTAR":0.0012910446,"MEAN_MOTION_DOT":0.00038082,"MEAN_MOTION_DDOT":0},{"OBJECT_NAME":"STARLINK-33634","OBJECT_ID":"2025-063Q","EPOCH":"2025-12-06T16:37:07.507200","MEAN_MOTION":15.30197871,"ECCENTRICITY":8.298e-5,"INCLINATION":53.1577,"RA_OF_ASC_NODE":124.2501,"ARG_OF_PERICENTER":96.8548,"MEAN_ANOMALY":263.2547,"EPHEMERIS_TYPE":0,"CLASSIFICATION_TYPE":"U","NORAD_CAT_ID":63377,"ELEMENT_SET_NO":999,"REV_AT_EPOCH":4052,"BSTAR":0.0013921444,"MEAN_MOTION_DOT":0.00041098,"MEAN_MOTION_DDOT":0},{"OBJECT_NAME":"STARLINK-33640","OBJECT_ID":"2025-063R","EPOCH":"2025-12-06T16:44:43.192032","MEAN_MOTION":15.30203263,"ECCENTRICITY":9.998e-5,"INCLINATION":53.1581,"RA_OF_ASC_NODE":124.2783,"ARG_OF_PERICENTER":71.6557,"MEAN_ANOMALY":288.4553,"EPHEMERIS_TYPE":0,"CLASSIFICATION_TYPE":"U","NORAD_CAT_ID":63378,"ELEMENT_SET_NO":999,"REV_AT_EPOCH":4052,"BSTAR":0.0017753165,"MEAN_MOTION_DOT":0.00052599,"MEAN_MOTION_DDOT":0},{"OBJECT_NAME":"STARLINK-33636","OBJECT_ID":"2025-063S","EPOCH":"2025-12-06T16:32:33.934560","MEAN_MOTION":15.30212019,"ECCENTRICITY":9.87e-5,"INCLINATION":53.159,"RA_OF_ASC_NODE":124.229,"ARG_OF_PERICENTER":92.3297,"MEAN_ANOMALY":267.7816,"EPHEMERIS_TYPE":0,"CLASSIFICATION_TYPE":"U","NORAD_CAT_ID":63379,"ELEMENT_SET_NO":999,"REV_AT_EPOCH":4047,"BSTAR":0.0015505858,"MEAN_MOTION_DOT":0.00045866,"MEAN_MOTION_DDOT":0},{"OBJECT_NAME":"STARLINK-33653","OBJECT_ID":"2025-063T","EPOCH":"2025-12-07T02:24:15.122592","MEAN_MOTION":15.30161818,"ECCENTRICITY":0.00021619,"INCLINATION":53.1585,"RA_OF_ASC_NODE":122.5271,"ARG_OF_PERICENTER":77.3638,"MEAN_ANOMALY":282.7604,"EPHEMERIS_TYPE":0,"CLASSIFICATION_TYPE":"U","NORAD_CAT_ID":63380,"ELEMENT_SET_NO":999,"REV_AT_EPOCH":4053,"BSTAR":0.0012805272,"MEAN_MOTION_DOT":0.00037715,"MEAN_MOTION_DDOT":0},{"OBJECT_NAME":"STARLINK-33643","OBJECT_ID":"2025-063U","EPOCH":"2025-12-07T02:16:38.228160","MEAN_MOTION":15.30212635,"ECCENTRICITY":8.468e-5,"INCLINATION":53.1572,"RA_OF_ASC_NODE":122.4942,"ARG_OF_PERICENTER":68.3702,"MEAN_ANOMALY":291.7388,"EPHEMERIS_TYPE":0,"CLASSIFICATION_TYPE":"U","NORAD_CAT_ID":63381,"ELEMENT_SET_NO":999,"REV_AT_EPOCH":4058,"BSTAR":0.00094164143,"MEAN_MOTION_DOT":0.00027644,"MEAN_MOTION_DDOT":0},{"OBJECT_NAME":"STARLINK-33633","OBJECT_ID":"2025-063V","EPOCH":"2025-12-07T02:43:43.831200","MEAN_MOTION":15.34503297,"ECCENTRICITY":7.015e-5,"INCLINATION":53.1612,"RA_OF_ASC_NODE":119.0673,"ARG_OF_PERICENTER":9.2429,"MEAN_ANOMALY":350.8587,"EPHEMERIS_TYPE":0,"CLASSIFICATION_TYPE":"U","NORAD_CAT_ID":63382,"ELEMENT_SET_NO":999,"REV_AT_EPOCH":4058,"BSTAR":0.0013931624,"MEAN_MOTION_DOT":0.00047145,"MEAN_MOTION_DDOT":0},{"OBJECT_NAME":"STARLINK-33748","OBJECT_ID":"2025-063W","EPOCH":"2025-12-06T20:11:05.745408","MEAN_MOTION":15.30220902,"ECCENTRICITY":8.395e-5,"INCLINATION":53.1598,"RA_OF_ASC_NODE":134.4019,"ARG_OF_PERICENTER":53.1917,"MEAN_ANOMALY":306.916,"EPHEMERIS_TYPE":0,"CLASSIFICATION_TYPE":"U","NORAD_CAT_ID":63383,"ELEMENT_SET_NO":999,"REV_AT_EPOCH":4039,"BSTAR":0.0016509837,"MEAN_MOTION_DOT":0.00048892,"MEAN_MOTION_DDOT":0},{"OBJECT_NAME":"STARLINK-33658","OBJECT_ID":"2025-063X","EPOCH":"2025-12-07T02:44:00.400128","MEAN_MOTION":15.30237069,"ECCENTRICITY":0.00011551,"INCLINATION":53.1601,"RA_OF_ASC_NODE":122.6084,"ARG_OF_PERICENTER":101.3527,"MEAN_ANOMALY":258.7604,"EPHEMERIS_TYPE":0,"CLASSIFICATION_TYPE":"U","NORAD_CAT_ID":63384,"ELEMENT_SET_NO":999,"REV_AT_EPOCH":4058,"BSTAR":0.001496781,"MEAN_MOTION_DOT":0.00044287,"MEAN_MOTION_DDOT":0},{"OBJECT_NAME":"STARLINK-33616","OBJECT_ID":"2025-063Y","EPOCH":"2025-12-07T03:58:19.520544","MEAN_MOTION":15.30236123,"ECCENTRICITY":0.0001102,"INCLINATION":53.1606,"RA_OF_ASC_NODE":132.8796,"ARG_OF_PERICENTER":77.1629,"MEAN_ANOMALY":282.9495,"EPHEMERIS_TYPE":0,"CLASSIFICATION_TYPE":"U","NORAD_CAT_ID":63385,"ELEMENT_SET_NO":999,"REV_AT_EPOCH":4039,"BSTAR":0.0017474067,"MEAN_MOTION_DOT":0.00051813,"MEAN_MOTION_DDOT":0},{"OBJECT_NAME":"STARLINK-33571","OBJECT_ID":"2025-063Z","EPOCH":"2025-12-06T19:46:46.674048","MEAN_MOTION":15.30226021,"ECCENTRICITY":0.00010623,"INCLINATION":53.1589,"RA_OF_ASC_NODE":134.2785,"ARG_OF_PERICENTER":85.9625,"MEAN_ANOMALY":274.1498,"EPHEMERIS_TYPE":0,"CLASSIFICATION_TYPE":"U","NORAD_CAT_ID":63386,"ELEMENT_SET_NO":999,"REV_AT_EPOCH":4034,"BSTAR":0.0013200967,"MEAN_MOTION_DOT":0.00038975,"MEAN_MOTION_DDOT":0},{"OBJECT_NAME":"STARLINK-33533","OBJECT_ID":"2025-063AA","EPOCH":"2025-12-06T16:10:31.548864","MEAN_MOTION":15.30226765,"ECCENTRICITY":0.00011326,"INCLINATION":53.1594,"RA_OF_ASC_NODE":122.0036,"ARG_OF_PERICENTER":81.1376,"MEAN_ANOMALY":278.9753,"EPHEMERIS_TYPE":0,"CLASSIFICATION_TYPE":"U","NORAD_CAT_ID":63387,"ELEMENT_SET_NO":999,"REV_AT_EPOCH":4050,"BSTAR":0.0012546093,"MEAN_MOTION_DOT":0.00037015,"MEAN_MOTION_DDOT":0},{"OBJECT_NAME":"STARLINK-33629","OBJECT_ID":"2025-063AB","EPOCH":"2025-12-06T16:24:12.212352","MEAN_MOTION":15.30215126,"ECCENTRICITY":9.518e-5,"INCLINATION":53.1582,"RA_OF_ASC_NODE":122.0594,"ARG_OF_PERICENTER":83.8918,"MEAN_ANOMALY":276.2191,"EPHEMERIS_TYPE":0,"CLASSIFICATION_TYPE":"U","NORAD_CAT_ID":63388,"ELEMENT_SET_NO":999,"REV_AT_EPOCH":4055,"BSTAR":0.0011055752,"MEAN_MOTION_DOT":0.00032544,"MEAN_MOTION_DDOT":0},{"OBJECT_NAME":"STARLINK-33656","OBJECT_ID":"2025-063AC","EPOCH":"2025-12-07T02:30:19.434240","MEAN_MOTION":15.30223569,"ECCENTRICITY":0.00026983,"INCLINATION":53.1589,"RA_OF_ASC_NODE":122.5472,"ARG_OF_PERICENTER":70.7108,"MEAN_ANOMALY":289.4184,"EPHEMERIS_TYPE":0,"CLASSIFICATION_TYPE":"U","NORAD_CAT_ID":63389,"ELEMENT_SET_NO":999,"REV_AT_EPOCH":4058,"BSTAR":0.0019004171,"MEAN_MOTION_DOT":0.00056398,"MEAN_MOTION_DDOT":0},{"OBJECT_NAME":"STARLINK-33531","OBJECT_ID":"2025-065A","EPOCH":"2025-12-07T04:27:46.397088","MEAN_MOTION":15.27620037,"ECCENTRICITY":0.00013808,"INCLINATION":43.0013,"RA_OF_ASC_NODE":269.4182,"ARG_OF_PERICENTER":281.2287,"MEAN_ANOMALY":78.841,"EPHEMERIS_TYPE":0,"CLASSIFICATION_TYPE":"U","NORAD_CAT_ID":63399,"ELEMENT_SET_NO":999,"REV_AT_EPOCH":3869,"BSTAR":0.0020750149,"MEAN_MOTION_DOT":0.00057353,"MEAN_MOTION_DDOT":0},{"OBJECT_NAME":"STARLINK-33652","OBJECT_ID":"2025-065B","EPOCH":"2025-12-07T03:50:45.835008","MEAN_MOTION":15.27618214,"ECCENTRICITY":0.00013388,"INCLINATION":43.0002,"RA_OF_ASC_NODE":269.2171,"ARG_OF_PERICENTER":277.5347,"MEAN_ANOMALY":82.5352,"EPHEMERIS_TYPE":0,"CLASSIFICATION_TYPE":"U","NORAD_CAT_ID":63400,"ELEMENT_SET_NO":999,"REV_AT_EPOCH":3869,"BSTAR":0.0021915038,"MEAN_MOTION_DOT":0.00060611,"MEAN_MOTION_DDOT":0}]
